#aV2023 11 29  0  0  0.00000000     288 DD+AD WGS84 FIT  NGA
## 2290 259200.00000000   300.00000000 60277 0.0000000000000
+   32     1  2  3  4  5  6  7  8  9 10 11 12 13 14 15 16 17
+         18 19 20 21 22 23 24 25 26 27 28 29 30 31 32  0  0
+          0  0  0  0  0  0  0  0  0  0  0  0  0  0  0  0  0
+          0  0  0  0  0  0  0  0  0  0  0  0  0  0  0  0  0
+          0  0  0  0  0  0  0  0  0  0  0  0  0  0  0  0  0
++         2  2  2  2  2  2  2  2  2  2  2  2  2  2  2  2  2
++         2  2  2  2  2  2  2  2  2  2  2  2  2  2  2  0  0
++         0  0  0  0  0  0  0  0  0  0  0  0  0  0  0  0  0
++         0  0  0  0  0  0  0  0  0  0  0  0  0  0  0  0  0
++         0  0  0  0  0  0  0  0  0  0  0  0  0  0  0  0  0
%c cc cc ccc ccc cccc cccc cccc cccc ccccc ccccc ccccc ccccc
%c cc cc ccc ccc cccc cccc cccc cccc ccccc ccccc ccccc ccccc
%f  0.0000000  0.000000000  0.00000000000  0.000000000000000
%f  0.0000000  0.000000000  0.00000000000  0.000000000000000
%i    0    0    0    0      0      0      0      0         0
%i    0    0    0    0      0      0      0      0         0
/*      NGA, ST. LOUIS,MO.                                  
/*   EPHEMERIS COMPUTED FROM 2 DAYS OF DATA                 
/*   EPOCHA v8 SMOOTHER                                     
/*   G2139 IERS2010 SATIGS SATAPC                           
*  2023 11 29  7 15  0.00000000
P  1  16677.810652  13987.289943 -15805.527868    163.410831                    
V  1 -19051.852769  -2864.657388 -22824.472607      0.003018                    
P  2  11226.050511  14250.427636 -18971.844644   -522.581521                    
V  2 -25081.272092  -1216.081906 -15148.445064      0.051835                    
P  3  11984.782479  23119.984693   5359.695439     18.278601                    
V  3    427.903157   7229.059601 -31188.103773      0.265793                    
P  4   8045.081114  13350.423555  21497.304904    225.843051                    
V  4 -18767.482856  19817.293829  -5412.868341      0.102795                    
P  5  -4972.211500 -24999.081273   7121.362819   -152.188866                    
V  5   5864.670919   7640.416357  30249.754508     -0.014412                    
P  6  19260.299745  -7488.648446  16816.006907    492.927077                    
V  6  20496.637365   5195.644174 -21155.351360     -0.107654                    
P  7  26128.191109   5962.750741   1561.232117      1.128399                    
V  7  -1861.731877   2433.313207  31124.742767     -0.098111                    
P  8   1052.074507  19245.631380 -18172.608951   -154.411973                    
V  8 -15840.314581  16886.726446  17451.188835     -0.019172                    
P  9  16571.407580   2526.172071  20528.136853     11.266525                    
V  9 -15814.806365  20988.582347  10082.886913      0.114802                    
P 10 -13528.055808   5692.584624 -21936.102540    -63.269386                    
V 10  -9711.951545 -26549.189933  -1211.963766     -0.015216                    
P 11   8100.649405 -13362.026610  21493.376291   -480.053798                    
V 11  26394.755972   6709.190161  -5832.969667     -0.157298                    
P 12  -9818.792935 -24317.900392   4170.963249   -452.075168                    
V 12   1016.784677  -6132.439815 -31196.908069     -0.040329                    
P 13  10125.848949 -20865.415969 -12947.106219    600.340281                    
V 13  13510.725764  -9152.409925  25928.498211      0.040075                    
P 14  15593.834188  -1820.942622 -21414.575670    256.646826                    
V 14   8163.566930  26028.651373   3553.150099      0.106632                    
P 15  -3772.580249 -19363.789165 -18173.059160    101.849071                    
V 15  13471.647342 -17852.330791  16896.398404      0.037870                    
P 16  -2270.387787  23361.418672  11654.979407   -413.592149                    
V 16  -6533.903306 -14272.318347  27058.604567      0.069061                    
P 17  21227.322320 -10633.822707 -11605.596475    722.725028                    
V 17  -9109.804083  12535.690347 -27004.609823     -0.004627                    
P 18 -26221.534770  -4753.771355   -805.947983   -492.458716                    
V 18   -568.579197  -2395.674438  31907.473139     -0.104851                    
P 19  20722.257448 -15834.398638  -4104.370163    405.456501                    
V 19  -1749.647261   5443.512259 -31631.012150      0.052393                    
P 20   3336.560460 -19671.728179  17669.684462    399.221939                    
V 20  12446.801542  18574.223091  18201.522127     -0.019237                    
P 21   8298.270510  14861.025537 -20111.790238    142.991882                    
V 21 -26388.079793  -1801.912846 -11009.106730     -0.010570                    
P 22  12381.700587 -10053.250230 -20845.254847     75.232510                    
V 22   7439.954157  26416.801522  -7870.104461     -0.068935                    
P 23 -16849.791247  -7958.630439 -18985.038703    107.049943                    
V 23  -7713.164431 -22781.320699  16202.029858      0.066265                    
P 24 -12035.992403 -15066.912140 -18831.233646   -382.169034                    
V 24  23084.392355    571.159182 -15122.630207     -0.085486                    
P 25 -16328.100773 -15690.568860  13768.438368    479.415389                    
V 25  -4134.184681 -17615.777874 -24131.862507      0.015772                    
P 26  -7502.531071  17119.124040  18599.651223    213.218228                    
V 26 -11603.186545 -21242.794149  15125.935470     -0.028656                    
P 27 -11077.221534  22410.945968  -8571.999382    -76.379499                    
V 27  -8962.251656   6375.108252  29540.205621     -0.050324                    
P 28 -20660.431866   7458.426342  14909.111074    -57.281062                    
V 28 -18466.137955  -4822.689052 -23136.078576     -0.092076                    
P 29 -15759.517400  -4293.599685  20921.447092   -610.065385                    
V 29  18232.304656 -19385.952493   9634.959553      0.001781                    
P 30  25077.876661  -1905.452175  -8823.637090   -463.132026                    
V 30  10560.709261   5164.411195  28241.955426      0.041645                    
P 31 -13884.338601  11289.764494  19550.431244   -226.162163                    
V 31 -24420.560416  -6184.282871 -13223.161733     -0.003459                    
P 32 -20207.207277  14375.233125  -9029.912798   -591.063796                    
V 32   5412.898853 -10839.738689 -28985.586877     -0.040921                    
EOF
